EUTELSAT 5 WEST A       
1 27460U 02035A   22047.37287329 -.00000041  00000+0  00000+0 0  9999
2 27460   2.0169  90.7255 0006108 237.7225 307.0964  1.00271294 71889
METEOSAT-8 (MSG-1)      
1 27509U 02040B   22047.16686392  .00000139  00000+0  00000+0 0  9996
2 27509   7.8136  51.2896 0001496 284.6811 271.8596  1.00267977 71387
INTELSAT 906 (IS-906)   
1 27513U 02041A   22046.80049348  .00000016  00000+0  00000+0 0  9990
2 27513   1.7682  91.9422 0003336 245.5583 160.5618  1.00271092 71162
HISPASAT 30W-4          
1 27528U 02044A   22047.54153387  .00000118  00000+0  00000+0 0  9993
2 27528   2.5298  88.1125 0005107 244.5250 225.7942  1.00273524 71083
TDRS 10                 
1 27566U 02055A   22046.76556208  .00000093  00000+0  00000+0 0  9991
2 27566   7.9813  50.6333 0008783 316.7597 242.8849  1.00277720 70369
NSS-6                   
1 27603U 02057A   22046.83771208  .00000109  00000+0  00000+0 0  9990
2 27603   1.3035  93.0862 0003521 236.0291 308.6968  1.00272913 70174
NIMIQ 2                 
1 27632U 02062A   22046.56579584 -.00000125  00000+0  00000+0 0  9990
2 27632   5.7220  71.5253 0008788 283.6792 260.9127  0.99997388 28312
USA 167                 
1 27691U 03008A   22046.60962042  .00000058  00000+0  00000+0 0  9990
2 27691   7.8035  55.3825 0002148 316.9489 222.6037  1.00270460 17081
USA 169 (MILSTAR-2 4)   
1 27711U 03012A   22046.89353883 -.00000190  00000+0  00000+0 0  9994
2 27711   9.9431  41.0100 0002731 280.5041 298.1714  1.00271399 17085
GALAXY 12 (G-12)        
1 27715U 03013B   22047.45220753  .00000059  00000+0  00000+0 0  9994
2 27715   2.9687  86.8263 0002112 240.1718 213.1912  1.00271580 69141
ASIASAT 4               
1 27718U 03014A   22046.86577046 -.00000188  00000+0  00000+0 0  9996
2 27718   0.6631  95.8048 0004345 233.2492 207.6972  1.00549586 29437
HELLAS-SAT 2            
1 27811U 03020A   22046.86187153 -.00000266  00000+0  00000+0 0  9990
2 27811   3.3836  85.9051 0006962 236.9219  84.8444  1.00519958 26971
THURAYA-2               
1 27825U 03026A   22046.52148900  .00000131  00000+0  00000+0 0  9991
2 27825   6.5869  34.3028 0003306 250.4431  92.4648  1.00273223 68479
OPTUS C1                
1 27831U 03028B   22046.87271505 -.00000150  00000+0  00000+0 0  9998
2 27831   2.8963  87.8067 0005777 240.9826 286.9203  1.00271076 37198
GALAXY 23 (G-23)        
1 27854U 03034A   22047.45829934  .00000015  00000+0  00000+0 0  9999
2 27854   0.0441 257.8168 0002871  75.2161 217.3579  1.00271492 72687
USA 170                 
1 27875U 03040A   22046.86300535 -.00000270  00000+0  00000+0 0  9998
2 27875   7.1270  60.7171 0002070 253.5263  99.7711  1.00277701 17091
GALAXY 13 (HORIZONS 1)  
1 27954U 03044A   22046.65578639  .00000050  00000+0  00000+0 0  9994
2 27954   0.0247  99.3592 0001306 259.5058 255.7985  1.00270163 30704
YAMAL 202               
1 28089U 03053A   22046.87737378 -.00000078  00000+0  00000+0 0  9996
2 28089   2.3318  89.3239 0002409 248.1803 287.6711  1.00272770 66810
UFO 11 (USA 174)        
1 28117U 03057A   22046.52750706 -.00000091  00000+0  00000+0 0  9999
2 28117   6.8161  37.9226 0004127 334.5962  37.6336  1.00270766 66580
USA 176 (DSP 22)        
1 28158U 04004A   22046.90590562 -.00000212  00000+0  00000+0 0  9996
2 28158   9.9332  35.9321 0001069 337.9728 185.3842  1.00268938 17062
ABS-4 (MOBISAT-1)       
1 28184U 04007A   22046.88367605  .00000041  00000+0  00000+0 0  9994
2 28184   2.0174  90.5197 0005221 243.3859 191.0555  1.00274367 36470
EUTELSAT 7A             
1 28187U 04008A   22047.54466385  .00000106  00000+0  00000+0 0  9999
2 28187   1.8057  89.3311 0004264 238.9797 235.0259  1.00272545 65716
AMC-11 (GE-11)          
1 28252U 04017A   22046.70184869  .00000071  00000+0  00000+0 0  9994
2 28252   0.0644 292.7462 0003071  30.6223 303.9434  1.00270956 65012
INTELSAT 10-02          
1 28358U 04022A   22046.94307164 -.00000009  00000+0  00000+0 0  9990
2 28358   0.0606 274.4278 0001003  62.6686 147.3129  1.00271600 64769
ANIK F2                 
1 28378U 04027A   22046.66935764 -.00000047  00000+0  00000+0 0  9991
2 28378   0.0386  95.6694 0001887  97.4151  82.4197  1.00269449 25392
AMC-15                  
1 28446U 04041A   22047.47093148 -.00000087  00000+0  00000+0 0  9998
2 28446   0.0123 298.1783 0002885  27.6266 245.1087  1.00270448 63486
NSS-10 (AMC-12)         
1 28526U 05003A   22046.93583253 -.00000250  00000+0  00000+0 0  9999
2 28526   2.4813  88.6724 0003300 227.0302 129.6311  1.00273111 62456
XTAR-EUR                
1 28542U 05005A   22046.51526767  .00000153  00000+0  00000+0 0  9991
2 28542   0.2693  96.3047 0003168 237.0293  26.6242  1.00272120 62326
XM-3 (RHYTHM)           
1 28626U 05008A   22046.85454519 -.00000203  00000+0  00000+0 0  9996
2 28626   0.0188 107.4020 0000952 336.2011 284.7607  1.00268039 26752
INMARSAT 4-F1           
1 28628U 05009A   22046.85396517 -.00000258  00000+0  00000+0 0  9992
2 28628   3.5238  33.7621 0003084 297.5968 265.3796  1.00271944 61803
DIRECTV 8               
1 28659U 05019A   22047.45951251  .00000003  00000+0  00000+0 0  9993
2 28659   0.0369 268.8742 0003200  62.8733 221.0265  1.00272448 61329
GALAXY 28 (G-28)        
1 28702U 05022A   22047.33606394 -.00000183  00000+0  00000+0 0  9998
2 28702   0.0085 347.4707 0002040   8.7578 182.0333  1.00270263 60969
EXPRESS-AM3             
1 28707U 05023A   22046.88969412 -.00000275  00000+0  00000+0 0  9998
2 28707   3.2849  85.0408 0001976 290.8055 181.5350  1.00470048 60978
THAICOM 4               
1 28786U 05028A   22046.96704705 -.00000361  00000+0  00000+0 0  9997
2 28786   0.0135  95.4224 0002835 231.3569 286.7971  1.00272543 60454
GALAXY 14 (G-14)        
1 28790U 05030A   22046.87809410  .00000157  00000+0  00000+0 0  9996
2 28790   0.9557  93.5270 0002172 235.2501 166.0723  1.00274250 60440
ANIK F1R                
1 28868U 05036A   22047.46864769 -.00000072  00000+0  00000+0 0  9999
2 28868   0.2550  94.2017 0002405 259.1816 214.4300  1.00272294 60290
GALAXY 15 (G-15)        
1 28884U 05041A   22047.44810293  .00000081  00000+0  00000+0 0  9993
2 28884   0.0550 283.0069 0001601  50.2676 201.4184  1.00273026 59740
SYRACUSE 3A             
1 28885U 05041B   22047.25257825  .00000130  00000+0  00000+0 0  9994
2 28885   0.8181  94.8789 0002635 234.5988 314.6413  1.00274345 59867
INMARSAT 4-F2           
1 28899U 05044A   22046.88428660  .00000013  00000+0  00000+0 0  9997
2 28899   3.4095  36.2168 0002985 293.4711 198.3909  1.00271675 59659
SPACEWAY 2              
1 28903U 05046B   22047.16640554  .00000105  00000+0  00000+0 0  9997
2 28903   1.6256  89.1752 0000144  97.8011 240.1424  1.00271894 59633
METEOSAT-9 (MSG-2)      
1 28912U 05049B   22046.80177817  .00000087  00000+0  00000+0 0  9996
2 28912   5.7469  67.0663 0001358 230.8561 146.8248  1.00411887 59170
EUTELSAT 174A           
1 28924U 05052A   22046.84146491  .00000012  00000+0  00000+0 0  9999
2 28924   0.2060  90.4077 0006328 238.7828 293.5299  1.00273343 36460
ECHOSTAR 10             
1 28935U 06003A   22047.46636581 -.00000053  00000+0  00000+0 0  9997
2 28935   0.0191 270.6787 0002263  26.0969 267.3766  1.00268199 58659
SPAINSAT                
1 28945U 06007A   22046.67860122 -.00000215  00000+0  00000+0 0  9994
2 28945   0.0675 265.3604 0004170  32.6754  61.8964  1.00269938 58345
EUTELSAT HOTBIRD 13E    
1 28946U 06007B   22046.80230148  .00000089  00000+0  00000+0 0  9997
2 28946   0.0692 235.6970 0003568  71.6108 140.2497  1.00272154 58434
JCSAT-5A                
1 29045U 06010A   22047.51854792 -.00000326  00000+0  00000+0 0  9993
2 29045   0.0434 271.5540 0001647  87.4593 106.1798  1.00273531 58086
ASTRA 1KR               
1 29055U 06012A   22046.30117584  .00000122  00000+0  00000+0 0  9996
2 29055   0.0946 275.7086 0004195   5.2797 351.8938  1.00271248 29852
EWS-G1 (GOES 13)        
1 29155U 06018A   22046.84980764  .00000038  00000+0  00000+0 0  9996
2 29155   0.4804  98.6672 0004177 161.7927 252.8315  1.00269160 27516
EUTELSAT 113 WEST A     
1 29162U 06020A   22046.62323089 -.00000035  00000+0  00000+0 0  9992
2 29162   0.0261 269.7214 0002937  63.9232 283.2834  1.00271361 57607
GALAXY 16 (G-16)        
1 29236U 06023A   22046.85166699 -.00000125  00000+0  00000+0 0  9994
2 29236   0.0283 125.1347 0002917 208.5852  19.6916  1.00269663 57107
EUTELSAT HOTBIRD 13B    
1 29270U 06032A   22046.80230148  .00000088  00000+0  00000+0 0  9995
2 29270   0.0760 335.8305 0005867 356.1841 115.5544  1.00271673 31440
JCSAT-3A                
1 29272U 06033A   22046.82528841 -.00000344  00000+0  00000+0 0  9996
2 29272   0.0244 223.7903 0002175  99.4097 247.6765  1.00269666 31875
SYRACUSE 3B             
1 29273U 06033B   22046.87041889 -.00000042  00000+0  00000+0 0  9999
2 29273   0.0179 124.8351 0003527 205.9323 123.2011  1.00272036 56830
KOREASAT 5 (MUGUNGWHA 5)
1 29349U 06034A   22046.82227444 -.00000356  00000+0  00000+0 0  9990
2 29349   0.0272 220.8028 0001554  80.8101 253.2350  1.00269839 56767
DIRECTV 9S              
1 29494U 06043A   22047.47428153 -.00000111  00000+0  00000+0 0  9992
2 29494   0.0277 232.7016 0003203  97.1972 246.0543  1.00271448 56248
OPTUS D1                
1 29495U 06043B   22046.87271505 -.00000110  00000+0  00000+0 0  9992
2 29495   0.0650 283.8927 0003550  47.4135 288.6848  1.00270276 56255
XM-4 (BLUES)            
1 29520U 06049A   22047.18102175 -.00000021  00000+0  00000+0 0  9999
2 29520   0.0633 293.5826 0002115  23.8778 138.6083  1.00271601 56133
BADR-4                  
1 29526U 06051A   22046.87669861  .00000146  00000+0  00000+0 0  9990
2 29526   0.0652 313.0314 0006252  13.7389 160.6659  1.00276589 35403
WILDBLUE-1              
1 29643U 06054A   22047.46636612 -.00000047  00000+0  00000+0 0  9998
2 29643   0.0069 148.0757 0001891 178.1826 236.8535  1.00271376 55688
AMC-18                  
1 29644U 06054B   22047.33882106 -.00000214  00000+0  00000+0 0  9992
2 29644   0.0651 286.1639 0002680  43.2039 215.8872  1.00268544 55688
